1 00007U 21001A   21274.00000000  .00000000  00000-0  50000-4 0  9997
2 00007  104.0000  411.8000  0012306  100.0000  101.0000  14.99449996